QIANFAN-1               
1 60379U 24140A   25335.80513130  .00000085  00000+0  11273-3 0  9994
2 60379  88.9747 300.4126 0015577 245.2014 114.7517 13.50975617 65875
QIANFAN-2               
1 60380U 24140B   25335.83415546  .00000085  00000+0  11295-3 0  9995
2 60380  88.9733 300.2504 0011324 212.4939 147.5516 13.50979197 65935
QIANFAN-3               
1 60381U 24140C   25335.84232448  .00000073  00000+0  93895-4 0  9999
2 60381  88.9726 300.3830 0012181 227.2327 132.7800 13.50979703 65843
QIANFAN-4               
1 60382U 24140D   25335.81750473  .00000085  00000+0  11266-3 0  9994
2 60382  88.9751 300.2805 0011500 215.5993 144.4392 13.50979949 65967
QIANFAN-5               
1 60383U 24140E   25335.79293003  .00000092  00000+0  12458-3 0  9995
2 60383  88.9726 300.4135 0013287 240.5509 119.4316 13.50977357 65827
QIANFAN-6               
1 60384U 24140F   25335.81352605  .00000076  00000+0  99116-4 0  9992
2 60384  88.9752 300.1547 0011487 222.3811 137.6454 13.50977888 66022
QIANFAN-7               
1 60385U 24140G   25335.81055985  .00000651  00000+0  25818-3 0  9990
2 60385  88.9768 295.0049 0017388  77.2660 283.0476 14.27624958 68837
QIANFAN-8               
1 60386U 24140H   25335.82176558  .00000078  00000+0  10287-3 0  9999
2 60386  88.9754 300.3912 0014884 225.9758 134.0167 13.50975804 65877
